NORAD_CAT_ID,OBJECT_NAME,OBJECT_TYPE,EPOCH,MEAN_MOTION,ECCENTRICITY,INCLINATION,RA_OF_ASC_NODE,ARG_OF_PERICENTER,MEAN_ANOMALY,BSTAR,MEAN_MOTION_DOT,MEAN_MOTION_DDOT,TLE_LINE0,TLE_LINE1,TLE_LINE2,SEMIMAJOR_AXIS,PERIOD,APOGEE,PERIGEE,DECAYED
52269.0,STARLINK-3791,PAYLOAD,2023-03-07 04:02:10,15.08844417,0.000104,53.2181,0.5733,61.2516,298.858,0.00079646,0.00012412,0.0,0 STARLINK-3791,1 52269U 22041J   23066.16817910  .00012412  00000-0  79646-3 0  9998,2 52269  53.2181   0.5733 0001040  61.2516 298.8580 15.08844417 49746,6917.867,95.437,540.451,539.012,0.0
52269.0,STARLINK-3791,PAYLOAD,2023-03-07 19:56:02,15.08848523,0.0001058,53.2183,357.6005,67.2418,292.8686,0.00098505,0.00015427,0.0,0 STARLINK-3791,1 52269U 22041J   23066.83058202  .00015427  00000-0  98505-3 0  9997,2 52269  53.2183 357.6005 0001058  67.2418 292.8686 15.08848523 49846,6917.854,95.437,540.451,538.987,0.0
52269.0,STARLINK-3791,PAYLOAD,2023-03-08 02:17:34,15.08878755,6.58e-05,53.2166,356.4093,58.2275,301.8782,0.0023545,0.00037423,0.0,0 STARLINK-3791,1 52269U 22041J   23067.09553571  .00037423  00000-0  23545-2 0  9996,2 52269  53.2166 356.4093 0000658  58.2275 301.8782 15.08878755 49889,6917.762,95.435,540.082,539.172,0.0
52269.0,STARLINK-3791,PAYLOAD,2023-03-08 03:52:57,15.08888563,7.13e-05,53.217,356.1109,62.7326,297.3739,0.0025322,0.00040296,0.0,0 STARLINK-3791,1 52269U 22041J   23067.16177277  .00040296  00000-0  25322-2 0  9996,2 52269  53.2170 356.1109 0000713  62.7326 297.3739 15.08888563 48673,6917.732,95.434,540.09,539.104,0.0
52269.0,STARLINK-3791,PAYLOAD,2023-03-09 02:08:21,15.08862921,9.56e-05,53.2175,351.9497,80.7322,279.3778,0.0025261,0.00040169,0.0,0 STARLINK-3791,1 52269U 22041J   23068.08913951  .00040169  00000-0  25261-2 0  9996,2 52269  53.2175 351.9497 0000956  80.7322 279.3778 15.08862921 50032,6917.81,95.436,540.337,539.014,0.0
52269.0,STARLINK-3791,PAYLOAD,2023-03-09 18:02:13,15.08824521,0.0001624,53.2174,348.9763,31.4623,328.6466,0.0033458,0.00053341,0.0,0 STARLINK-3791,1 52269U 22041J   23068.75154811  .00053341  00000-0  33458-2 0  9995,2 52269  53.2174 348.9763 0001624  31.4623 328.6466 15.08824521 50130,6917.928,95.439,540.916,538.669,0.0
52269.0,STARLINK-3791,PAYLOAD,2023-03-10 01:59:08,15.08886526,0.0001272,53.2164,347.4892,48.6303,311.4799,0.003728,0.00059621,0.0,0 STARLINK-3791,1 52269U 22041J   23069.08273821  .00059621  00000-0  37280-2 0  9999,2 52269  53.2164 347.4892 0001272  48.6303 311.4799 15.08886526 50187,6917.738,95.435,540.483,538.723,0.0
52269.0,STARLINK-3791,PAYLOAD,2023-03-10 17:53:00,15.08829945,0.000166,53.2163,344.5147,92.722,267.3962,-8.8746e-05,-1.7e-05,0.0,0 STARLINK-3791,1 52269U 22041J   23069.74514247 -.00001700  00000-0 -88746-4 0  9994,2 52269  53.2163 344.5147 0001660  92.7220 267.3962 15.08829945 50280,6917.911,95.438,540.924,538.628,0.0
52269.0,STARLINK-3791,PAYLOAD,2023-03-11 03:25:19,15.08847274,0.0001014,53.2158,342.7304,99.3335,260.7771,0.0033572,0.00053559,0.0,0 STARLINK-3791,1 52269U 22041J   23070.14258687  .00053559  00000-0  33572-2 0  9995,2 52269  53.2158 342.7304 0001014  99.3335 260.7771 15.08847274 50349,6917.858,95.437,540.425,539.022,0.0
52269.0,STARLINK-3791,PAYLOAD,2023-03-11 17:43:48,15.08856436,0.000122,53.2151,340.0552,81.7095,278.4036,0.0027182,0.00043257,0.0,0 STARLINK-3791,1 52269U 22041J   23070.73875267  .00043257  00000-0  27182-2 0  9993,2 52269  53.2151 340.0552 0001220  81.7095 278.4036 15.08856436 50435,6917.83,95.437,540.539,538.851,0.0
52269.0,STARLINK-3791,PAYLOAD,2023-03-12 03:16:06,15.08870411,0.0001175,53.2154,338.2685,87.9534,272.1593,0.0018767,0.00029731,0.0,0 STARLINK-3791,1 52269U 22041J   23071.13618743  .00029731  00000-0  18767-2 0  9992,2 52269  53.2154 338.2685 0001175  87.9534 272.1593 15.08870411 50493,6917.787,95.436,540.465,538.84,0.0
52269.0,STARLINK-3791,PAYLOAD,2023-03-12 17:34:34,15.08867788,0.0001226,53.2153,335.5935,83.934,276.1792,0.0020425,0.00032393,0.0,0 STARLINK-3791,1 52269U 22041J   23071.73234812  .00032393  00000-0  20425-2 0  9991,2 52269  53.2153 335.5935 0001226  83.9340 276.1792 15.08867788 50586,6917.795,95.436,540.509,538.812,0.0
52269.0,STARLINK-3791,PAYLOAD,2023-03-13 03:06:53,15.08881409,8.87e-05,53.2162,333.8087,87.9371,272.1722,0.0021702,0.00034459,0.0,0 STARLINK-3791,1 52269U 22041J   23072.12978064  .00034459  00000-0  21702-2 0  9993,2 52269  53.2162 333.8087 0000887  87.9371 272.1722 15.08881409 50647,6917.754,95.435,540.232,539.005,0.0
52269.0,STARLINK-3791,PAYLOAD,2023-03-13 22:11:28,15.08919614,0.0001238,53.2161,330.2386,92.9368,267.1766,0.0016524,0.00026165,0.0,0 STARLINK-3791,1 52269U 22041J   23072.92462998  .00026165  00000-0  16524-2 0  9996,2 52269  53.2161 330.2386 0001238  92.9368 267.1766 15.08919614 49541,6917.637,95.433,540.358,538.646,0.0
52269.0,STARLINK-3791,PAYLOAD,2023-03-14 04:33:04,15.0884236,0.0001263,53.2156,329.0518,97.1944,262.9192,0.0012837,0.00020202,0.0,0 STARLINK-3791,1 52269U 22041J   23073.18963338  .00020202  00000-0  12837-2 0  9998,2 52269  53.2156 329.0518 0001263  97.1944 262.9192 15.08842360 50803,6917.873,95.437,540.612,538.864,0.0
52269.0,STARLINK-3791,PAYLOAD,2023-03-14 06:08:27,15.08852546,0.0001473,53.2168,328.7524,107.6145,252.5008,0.0012279,0.00019315,0.0,0 STARLINK-3791,1 52269U 22041J   23073.25587137  .00019315  00000-0  12279-2 0  9998,2 52269  53.2168 328.7524 0001473 107.6145 252.5008 15.08852546 49594,6917.842,95.437,540.726,538.688,0.0
52269.0,STARLINK-3791,PAYLOAD,2023-03-15 02:48:27,15.08891367,0.0001375,53.2161,324.8872,106.9401,253.1742,0.0026855,0.00042772,0.0,0 STARLINK-3791,1 52269U 22041J   23074.11698353  .00042772  00000-0  26855-2 0  9995,2 52269  53.2161 324.8872 0001375 106.9401 253.1742 15.08891367 50945,6917.723,95.434,540.54,538.637,0.0
52269.0,STARLINK-3791,PAYLOAD,2023-03-15 21:53:05,15.08846093,0.0001184,53.2162,321.3175,90.0422,270.0706,0.0013096,0.00020619,0.0,0 STARLINK-3791,1 52269U 22041J   23074.91186930  .00020619  00000-0  13096-2 0  9995,2 52269  53.2162 321.3175 0001184  90.0422 270.0706 15.08846093 49849,6917.862,95.437,540.546,538.908,0.0
52269.0,STARLINK-3791,PAYLOAD,2023-03-16 04:14:37,15.08862154,0.0001222,53.2161,320.1294,86.8899,273.2233,0.0013571,0.00021389,0.0,0 STARLINK-3791,1 52269U 22041J   23075.17682710  .00021389  00000-0  13571-2 0  9994,2 52269  53.2161 320.1294 0001222  86.8899 273.2233 15.08862154 51109,6917.813,95.436,540.523,538.832,0.0
52269.0,STARLINK-3791,PAYLOAD,2023-03-17 02:30:03,15.08823135,0.0001308,53.2159,315.9655,71.6533,288.4601,0.0013683,0.00021545,0.0,0 STARLINK-3791,1 52269U 22041J   23076.10420653  .00021545  00000-0  13683-2 0  9992,2 52269  53.2159 315.9655 0001308  71.6533 288.4601 15.08823135 51249,6917.932,95.439,540.702,538.892,0.0
52269.0,STARLINK-3791,PAYLOAD,2023-03-17 13:37:45,15.08841846,0.0001151,53.2146,313.8853,76.0151,284.0969,0.0013153,0.00020708,0.0,0 STARLINK-3791,1 52269U 22041J   23076.56788489  .00020708  00000-0  13153-2 0  9998,2 52269  53.2146 313.8853 0001151  76.0151 284.0969 15.08841846 50093,6917.875,95.437,540.536,538.943,0.0
52269.0,STARLINK-3791,PAYLOAD,2023-03-17 21:34:40,15.08861158,0.00012,53.2147,312.3989,68.7792,291.3328,0.0013297,0.0002095,0.0,0 STARLINK-3791,1 52269U 22041J   23076.89908136  .00020950  00000-0  13297-2 0  9995,2 52269  53.2147 312.3989 0001200  68.7792 291.3328 15.08861158 50146,6917.816,95.436,540.511,538.851,0.0
52269.0,STARLINK-3791,PAYLOAD,2023-03-18 08:42:22,15.08858876,0.000117,53.2139,310.3164,75.6859,284.4263,0.00080498,0.00012553,0.0,0 STARLINK-3791,1 52269U 22041J   23077.36275760  .00012553  00000-0  80498-3 0  9996,2 52269  53.2139 310.3164 0001170  75.6859 284.4263 15.08858876 51434,6917.823,95.436,540.497,538.878,0.0
52269.0,STARLINK-3791,PAYLOAD,2023-03-18 21:25:27,15.08848508,0.0001737,53.2143,307.9383,74.9413,285.1771,0.00053692,8.269e-05,0.0,0 STARLINK-3791,1 52269U 22041J   23077.89267818  .00008269  00000-0  53692-3 0  9994,2 52269  53.2143 307.9383 0001737  74.9413 285.1771 15.08848508 51513,6917.854,95.437,540.921,538.518,0.0
52269.0,STARLINK-3791,PAYLOAD,2023-03-19 08:33:09,15.08851299,0.0001441,53.2142,305.857,74.266,285.8491,0.00026236,3.891e-05,0.0,0 STARLINK-3791,1 52269U 22041J   23078.35635517  .00003891  00000-0  26236-3 0  9991,2 52269  53.2142 305.8570 0001441  74.2660 285.8491 15.08851299 50365,6917.846,95.437,540.708,538.714,0.0
52269.0,STARLINK-3791,PAYLOAD,2023-03-19 21:16:14,15.08845416,0.0001325,53.215,303.4754,89.3906,270.7238,0.00017692,2.529e-05,0.0,0 STARLINK-3791,1 52269U 22041J   23078.88627478  .00002529  00000-0  17692-3 0  9999,2 52269  53.2150 303.4754 0001325  89.3906 270.7238 15.08845416 51663,6917.864,95.437,540.645,538.812,0.0
52269.0,STARLINK-3791,PAYLOAD,2023-03-20 08:23:56,15.08844158,0.0001313,53.2139,301.3936,85.3283,274.7859,5.9376e-05,6.57e-06,0.0,0 STARLINK-3791,1 52269U 22041J   23079.34995473  .00000657  00000-0  59376-4 0  9990,2 52269  53.2139 301.3936 0001313  85.3283 274.7859 15.08844158 50518,6917.868,95.437,540.641,538.824,0.0
52269.0,STARLINK-3791,PAYLOAD,2023-03-20 21:07:01,15.08841804,0.0001535,53.2151,299.016,77.6043,282.5121,8.835e-05,1.118e-05,0.0,0 STARLINK-3791,1 52269U 22041J   23079.87987689  .00001118  00000-0  88350-4 0  9995,2 52269  53.2151 299.0160 0001535  77.6043 282.5121 15.08841804 50590,6917.875,95.437,540.802,538.678,0.0
52269.0,STARLINK-3791,PAYLOAD,2023-03-21 00:17:47,15.08844388,0.0001496,53.2149,298.4205,81.5076,278.6085,0.00010122,1.323e-05,0.0,0 STARLINK-3791,1 52269U 22041J   23080.01235526  .00001323  00000-0  10122-3 0  9998,2 52269  53.2149 298.4205 0001496  81.5076 278.6085 15.08844388 51839,6917.867,95.437,540.767,538.697,0.0
52269.0,STARLINK-3791,PAYLOAD,2023-03-21 20:57:47,15.08848957,0.0001319,53.2147,294.5542,77.848,282.2659,0.00022074,3.228e-05,0.0,0 STARLINK-3791,1 52269U 22041J   23080.87347196  .00003228  00000-0  22074-3 0  9994,2 52269  53.2147 294.5542 0001319  77.8480 282.2659 15.08848957 50742,6917.853,95.437,540.63,538.806,0.0
